E-ST@R-II               
1 41459U 16025D   22300.26906948  .00020022  00000+0  80082-3 0  9994
2 41459  98.1957 115.5612 0137603 180.8675 179.2217 15.16743210357453
AAUSAT 4                
1 41460U 16025E   22300.08056954  .00032155  00000+0  10760-2 0  9994
2 41460  98.1820 122.9108 0111947 153.0050 335.5337 15.24991418357957
BEESAT-4                
1 41619U 16040W   22299.66128572  .00014085  00000+0  41499-3 0  9990
2 41619  97.2004 346.9778 0008422  17.7917 342.3620 15.35104937340822
RAVAN                   
1 41849U 16067B   22299.69784864  .00003154  00000+0  24774-3 0  9991
2 41849  98.0059  80.6467 0015594 252.3120 107.6401 15.01594814325680
CELTEE 1                
1 41850U 16067C   22300.37554465  .00002541  00000+0  21454-3 0  9994
2 41850  98.0148  75.8947 0008496 253.4204 106.6085 14.99044459325518
OPTICUBE 04             
1 41851U 16067D   22300.35611886  .00001037  00000+0  92698-4 0  9992
2 41851  98.0157  74.7469 0007660 264.0153  96.0195 14.98173315325459
AEROCUBE 8D             
1 41852U 16067E   22299.63707079  .00002460  00000+0  20801-3 0  9998
2 41852  98.0124  74.1346 0009295 260.4292  99.5880 14.99017308325349
AEROCUBE 8C             
1 41853U 16067F   22299.82092351  .00001913  00000+0  16304-3 0  9995
2 41853  98.0137  74.1336 0009000 268.6867  91.3324 14.99002777325364
PROMETHEUS 2-1          
1 41854U 16067G   22300.34090909  .00005400  00000+0  43113-3 0  9996
2 41854  98.0245  76.0370 0015674 270.0573  89.8853 15.00624053325515
PROMETHEUS 2-3          
1 41855U 16067H   22300.33208076  .00005437  00000+0  43437-3 0  9991
2 41855  98.0202  76.0920 0013377 294.5579  65.4249 15.00624790325512
INS-1B                  
1 41954U 17008G   22300.15806150  .00016590  00000+0  48636-3 0  9992
2 41954  97.2412 357.4920 0008287 119.5477 240.6594 15.35228767316926
BGUSAT                  
1 41999U 17008BD  22300.15295286  .00056462  00000+0  95944-3 0  9999
2 41999  97.2660  10.7555 0004989 112.7026 247.4754 15.51259652316976
DIDO-2                  
1 42000U 17008BE  22299.67286065  .00006213  00000+0  21284-3 0  9997
2 42000  97.2411 355.6931 0008156 142.1627 218.0189 15.30528645316128
PEASSS                  
1 42015U 17008BV  22300.12281473  .00014458  00000+0  42941-3 0  9997
2 42015  97.2474   0.7591 0006084 131.2910 228.8858 15.34864821316940
AL-FARABI 1             
1 42016U 17008BW  22299.71745504  .00019338  00000+0  49878-3 0  9998
2 42016  97.2545   4.1567 0005268 129.7560 230.4150 15.39201000317200
NAYIF-1 (EO-88)         
1 42017U 17008BX  22299.71845388  .00019471  00000+0  49868-3 0  9997
2 42017  97.2538   4.1884 0005525 128.7333 231.4408 15.39414534317236
UCLSAT                  
1 42765U 17036A   22299.61722838  .00011695  00000+0  36831-3 0  9997
2 42765  97.1821 338.3241 0007900 203.0848 157.0041 15.33038061297926
LITUANICASAT-2          
1 42768U 17036D   22300.09733351  .00032305  00000+0  71967-3 0  9997
2 42768  97.1832 343.1017 0010101 176.7228 244.0903 15.43490035297491
AALTO-1                 
1 42775U 17036L   22300.33023403  .00007588  00000+0  28422-3 0  9995
2 42775  97.1839 333.1939 0010967 210.4173 149.6432 15.27496671296897
URSA MAIOR              
1 42776U 17036M   22299.66659830  .00006912  00000+0  25346-3 0  9990
2 42776  97.1852 333.4294 0010616 210.9227 149.1389 15.28233470296833
COMPASS 2               
1 42777U 17036N   22299.68136561  .00018423  00000+0  49890-3 0  9994
2 42777  97.1885 341.2546 0008658 187.0582 173.0543 15.37682856297271
DIAMOND RED             
1 42783U 17036U   22299.84561610  .00008595  00000+0  30012-3 0  9991
2 42783  97.1853 336.2013 0008899 212.7646 147.3045 15.29781204297011
PEGASUS                 
1 42784U 17036V   22300.34323326  .00012597  00000+0  41073-3 0  9996
2 42784  97.1840 338.1365 0008659 205.4995 154.5821 15.31900663297184
DIAMOND GREEN           
1 42785U 17036W   22299.84600462  .00009259  00000+0  32272-3 0  9990
2 42785  97.1853 336.2666 0008697 213.8203 146.2485 15.29820291297087
DIAMOND BLUE            
1 42786U 17036X   22299.64897939  .00008318  00000+0  29028-3 0  9996
2 42786  97.1859 336.0680 0008760 215.0511 145.0155 15.29809876297059
NUDTSAT                 
1 42787U 17036Y   22300.22239971  .00030710  00000+0  78627-3 0  9990
2 42787  97.1865 343.2849 0006943 190.6839 169.4044 15.39324230297320
SUCHAI                  
1 42788U 17036Z   22298.85651513  .00014661  00000+0  44150-3 0  9997
2 42788  97.1848 338.7324 0007925 203.2038 156.8849 15.34409004297154
SKCUBE                  
1 42789U 17036AA  22299.84419640  .00013074  00000+0  40828-3 0  9996
2 42789  97.1842 338.9821 0008110 201.6810 158.4090 15.33279851297183
VZLUSAT-1               
1 42790U 17036AB  22299.66174722  .00020194  00000+0  52421-3 0  9990
2 42790  97.1861 342.6690 0007240 188.3659 171.7467 15.38981689297389
ROBUSTA 1B              
1 42792U 17036AD  22300.33298862  .00016421  00000+0  49884-3 0  9998
2 42792  97.1838 340.1389 0007672 197.7514 162.3463 15.34109658297315
CICERO 6                
1 42793U 17036AE  22299.68362881  .00006923  00000+0  24439-3 0  9992
2 42793  97.1829 336.5274 0007546 211.6760 148.4027 15.29506574297118
CORVUS BC2              
1 42846U 17042X   22300.17537324  .00001309  00000+0  13006-3 0  9992
2 42846  97.4057 149.9482 0007761 277.9187  82.1153 14.93254139287937
CORVUS BC1              
1 42847U 17042Y   22300.31424954  .00001209  00000+0  12032-3 0  9990
2 42847  97.4057 150.4065 0007460 276.0419  83.9952 14.93337883287963
MIRATA                  
1 43015U 17073C   22299.63454156  .00005020  00000+0  35445-3 0  9999
2 43015  97.6563 190.0940 0234423 109.0666 253.6097 14.85750247266739
MAKERSAT 0              
1 43016U 17073D   22300.17194965  .00004054  00000+0  29558-3 0  9995
2 43016  97.6572 189.8440 0242961 112.8604 249.8462 14.83525256266709
CORVUS BC3              
1 43118U 18004H   22299.72060827  .00007249  00000+0  25722-3 0  9998
2 43118  97.3507  10.7994 0007411 254.4738 105.5684 15.29334088266260
MICROMAS-2A             
1 43131U 18004W   22300.19982307  .00036768  00000+0  82182-3 0  9994
2 43131  97.3656  20.2707 0005262 230.6304 129.4478 15.43405385266840
SPACEBEE-4              
1 43139U 18004AE  22300.21668321  .00148729  00000+0  15603-2 0  9996
2 43139  97.3730  27.7948 0005753 240.5780 119.4905 15.63873349267265
CICERO 7                
1 43143U 18004AJ  22299.78475575  .00013809  00000+0  37263-3 0  9994
2 43143  97.3646  18.6106 0004373 239.3778 120.7036 15.37888081266721
GOMX-4B                 
1 43196U 18015E   22300.19494075  .00007676  00000+0  27587-3 0  9991
2 43196  97.5524  81.0940 0015807 315.1872  44.8089 15.28820538263272
GOMX-4A                 
1 43197U 18015F   22300.14982646  .00009800  00000+0  33058-3 0  9994
2 43197  97.5505  82.2187 0015374 313.4389 149.3202 15.30810443263355
AEROCUBE 12A            
1 43556U 18046C   22300.15869000  .00030541  00000+0  64148-3 0  9996
2 43556  51.6354 259.4970 0007785 138.1564 222.0019 15.45051128239631
AEROCUBE 12B            
1 43557U 18046D   22299.91944565  .00020136  00000+0  47755-3 0  9992
2 43557  51.6367 267.5585 0007717 135.3532 224.8076 15.41682852239450
SURFSAT                 
1 43614U 18070B   22300.23930442  .00073261  00000+0  64971-3 0  9996
2 43614  93.0075 155.0132 0006385 184.4139 175.7076 15.68325776231619
CP7 (DAVE)              
1 43615U 18070C   22300.02247643  .00055755  00000+0  56011-3 0  9992
2 43615  93.0074 154.5974 0006750 193.3717 166.7373 15.65269772231524
CUBEBEL-1 (BSUSAT-1)    
1 43666U 18083E   22300.54421238  .00011475  00000+0  45234-3 0  9999
2 43666  97.4121 327.8612 0011080 220.5188 243.8496 15.25686227221607
CICERO 10               
1 43690U 18088A   22300.06592739  .00009439  00000+0  35403-3 0  9997
2 43690  85.0390 228.8468 0014641  32.5673 327.6472 15.26975947219805
IRVINE01                
1 43693U 18088D   22300.21907240  .00081049  00000+0  13901-2 0  9999
2 43693  85.0276 220.8348 0007674  24.8050 335.3575 15.50861630220533
PROXIMA I               
1 43694U 18088E   22300.27462643  .00011708  00000+0  41552-3 0  9998
2 43694  85.0321 225.0639 0015769 358.2047   1.9139 15.28797198220083
PROXIMA II              
1 43696U 18088G   22300.08075672  .00010749  00000+0  38192-3 0  9991
2 43696  85.0328 225.2182 0015871 358.8984   1.2224 15.28751241220051
FACSAT-1                
1 43721U 18096C   22300.53742938  .00026885  00000+0  63033-3 0  9995
2 43721  97.3410  20.6013 0011401 296.5651 191.7381 15.41984168218284
CENTAURI-2              
1 43722U 18096D   22300.22079935  .00045438  00000+0  87060-3 0  9993
2 43722  97.3469  23.1855 0010694 290.2709  69.7391 15.47834956218391
INNOSAT-2               
1 43738U 18096V   22300.42453633  .00188824  00000+0  14088-2 0  9999
2 43738  97.3549  33.4807 0011419 267.2236 155.0984 15.72097039219044
SIRION PATHFINDER-2     
1 43759U 18099B   22300.22442467  .00001458  00000+0  13205-3 0  9994
2 43759  97.6065   3.4826 0013799 173.7274 186.4124 14.96820831212751
CORVUS BC4              
1 43767U 18099K   22300.16441410  .00001630  00000+0  14935-3 0  9996
2 43767  97.6013   1.7379 0011367 179.4548 180.6688 14.96229972212663
MOVE-II                 
1 43780U 18099Y   22299.72339538  .00004569  00000+0  38278-3 0  9997
2 43780  97.6100   4.0955 0013168 182.2187 177.8980 14.98834572212712
SPACEBEE-7              
1 43816U 18099BL  22300.12632902  .00003955  00000+0  33461-3 0  9992
2 43816  97.6120   5.2114 0013597 165.7261 194.4349 14.98531794212364
SPACEBEE-5              
1 43817U 18099BM  22299.75790208  .00009373  00000+0  68857-3 0  9990
2 43817  97.6205   8.6984 0005876 164.0888 196.0523 15.03643455212489
SPACEBEE-6              
1 43818U 18099BN  22299.64483443  .00004418  00000+0  35969-3 0  9992
2 43818  97.6148   5.9188 0013729 175.7294 184.4049 14.99958124212499
